[{"OBJECT_NAME":"STARLINK-5852","OBJECT_ID":"2023-037V","EPOCH":"2026-03-09T22:17:22.804224","MEAN_MOTION":14.9832848,"ECCENTRICITY":0.00025234,"INCLINATION":69.9979,"RA_OF_ASC_NODE":283.9509,"ARG_OF_PERICENTER":270.8029,"MEAN_ANOMALY":89.2841,"EPHEMERIS_TYPE":0,"CLASSIFICATION_TYPE":"U","NORAD_CAT_ID":55933,"ELEMENT_SET_NO":999,"REV_AT_EPOCH":16401,"BSTAR":9.49923e-7,"MEAN_MOTION_DOT":-8.2e-7,"MEAN_MOTION_DDOT":0},{"OBJECT_NAME":"NTS (CANX-6)","OBJECT_ID":"2008-021B","EPOCH":"2026-03-09T21:01:43.854528","MEAN_MOTION":15.02479058,"ECCENTRICITY":0.00123192,"INCLINATION":97.9039,"RA_OF_ASC_NODE":46.2456,"ARG_OF_PERICENTER":105.3107,"MEAN_ANOMALY":254.9479,"EPHEMERIS_TYPE":0,"CLASSIFICATION_TYPE":"U","NORAD_CAT_ID":32784,"ELEMENT_SET_NO":999,"REV_AT_EPOCH":96921,"BSTAR":0.00045679857,"MEAN_MOTION_DOT":6.01e-5,"MEAN_MOTION_DDOT":0}]
